EOSSAT-1                
1 55053U 23001AW  26068.73619225  .00007695  00000+0  24844-3 0  9992
2 55053  97.3357 130.2294 0011263 110.3168 249.9285 15.32339828176689
STARLINK-35973          
1 66632U 25271R   26068.47336867  .00024246  00000+0  82798-3 0  9990
2 66632  53.1577 140.9367 0000932  72.1712 287.9391 15.30203912 17493
